ONEWEB-0267             
1 48985U 21060U   21236.91667824 -.01326078  00000-0 -64278+0 0  9995
2 48985  87.6124 219.7200 0008401  85.0007 258.0162 14.22162254  3521
ONEWEB-0268             
1 48986U 21060V   21236.91667824 -.01293442  00000-0 -54245+0 0  9997
2 48986  87.6333 219.7387 0009752  92.7661 114.8915 14.29631783  3521
ONEWEB-0269             
1 48987U 21060W   21236.91667824 -.01362672  00000-0 -60672+0 0  9991
2 48987  87.6364 219.7333 0009216  78.5855 277.1162 14.26724955  3527
ONEWEB-0270             
1 48988U 21060X   21236.91667824 -.01335217  00000-0 -43918+0 0  9991
2 48988  87.6192 219.6820 0013221  59.9493  47.9798 14.42021839  3526
ONEWEB-0271             
1 48989U 21060Y   21236.91667824 -.01344627  00000-0 -51355+0 0  9991
2 48989  87.6918 219.6997 0010256  90.8470 153.7405 14.34567960  9452
ONEWEB-0272             
1 48990U 21060Z   21236.91667824 -.01346516  00000-0 -62226+0 0  9991
2 48990  87.6230 219.7348 0009579  76.0448 265.0918 14.24729893  9426
ONEWEB-0273             
1 48991U 21060AA  21236.91667824 -.01365486  00000-0 -69435+0 0  9998
2 48991  87.6017 219.7441 0014657  80.5386  49.7790 14.19691699  9418
ONEWEB-0274             
1 48992U 21060AB  21236.91667824 -.01326236  00000-0 -58835+0 0  9991
2 48992  87.6384 219.7427 0011607  85.3788  82.5901 14.26798060  9441
ONEWEB-0275             
1 48993U 21060AC  21236.91667824 -.01380900  00000-0 -76552+0 0  9996
2 48993  87.5700 219.7284 0009841  91.5322 276.8361 14.15129789  3529
ONEWEB-0276             
1 48994U 21060AD  21236.91667824 -.01368679  00000-0 -71191+0 0  9990
2 48994  87.5868 219.7233 0013084  74.3230 107.5047 14.18503134  9418
ONEWEB-0277             
1 48995U 21060AE  21236.91667824 -.01386405  00000-0 -74091+0 0  9990
2 48995  87.5808 219.7519 0013204  91.8451 139.4862 14.17101191  3513
ONEWEB-0278             
1 48996U 21060AF  21236.91667824 -.01345639  00000-0 -46202+0 0  9998
2 48996  87.6383 219.7046 0014086  62.0484  93.7409 14.39909209  3545
ONEWEB-0279             
1 48997U 21060AG  21236.91667824 -.01352674  00000-0 -67656+0 0  9992
2 48997  87.5822 219.7302 0013517  76.3851 121.7798 14.20544049  9414
ONEWEB-0280             
1 48998U 21060AH  21236.91667824 -.01333945  00000-0 -73684+0 0  9991
2 48998  87.5699 219.7083 0007803  88.5166 195.2821 14.15200542  9388
ONEWEB-0281             
1 48999U 21060AJ  21236.91667824 -.01365156  00000-0 -60895+0 0  9991
2 48999  87.6433 219.7519 0012000  83.9437  57.6704 14.26619298  3531
ONEWEB-0282             
1 49000U 21060AK  21236.91667824 -.01342443  00000-0 -63052+0 0  9997
2 49000  87.6338 219.7174 0013622  71.0590 270.8758 14.23840562  9446
ONEWEB-0283             
1 49001U 21060AL  21236.91667824 -.01345413  00000-0 -62930+0 0  9992
2 49001  87.6366 219.7247 0012705  66.6013 316.5502 14.24073645  9446
ONEWEB-0284             
1 49002U 21060AM  21236.91667824 -.01338657  00000-0 -67473+0 0  9992
2 49002  87.6152 219.7447 0008962  71.3084   4.6838 14.20121647  9420
ONEWEB-0285             
1 49075U 21075A   21236.91667824 -.00035474  00000-0 -98407-3 0  9993
2 49075  87.4012   5.3025 0016082 300.1921  70.4148 15.37003040  1735
ONEWEB-0286             
1 49076U 21075B   21236.91667824 -.00034665  00000-0 -93829-3 0  9998
2 49076  87.4012   5.3040 0018572 304.9567  73.0713 15.37714593  1747
ONEWEB-0287             
1 49077U 21075C   21236.91667824 -.00036917  00000-0 -11055-2 0  9991
2 49077  87.4021   5.3081 0016909 301.9052  43.9816 15.34599756  1739
ONEWEB-0288             
1 49078U 21075D   21236.91667824 -.00034663  00000-0 -94239-3 0  9994
2 49078  87.4016   5.3014 0018161 306.1001  70.5921 15.37586935  1464
ONEWEB-0289             
1 49079U 21075E   21236.91667824 -.00035449  00000-0 -10198-2 0  9999
2 49079  87.3990   5.3041 0020285 298.7328  59.3010 15.35788220  1725
ONEWEB-0290             
1 49080U 21075F   21236.91667824 -.00034280  00000-0 -99501-3 0  9999
2 49080  87.4002   5.3057 0020371 301.8447  53.4725 15.35503852  1503
ONEWEB-0291             
1 49081U 21075G   21236.91667824 -.00035208  00000-0 -98418-3 0  9997
2 49081  87.4006   5.3013 0016519 296.7748  71.2724 15.36757203  1740
ONEWEB-0293             
1 49082U 21075H   21236.91667824 -.00035650  00000-0 -10218-2 0  9990
2 49082  87.4016   5.3066 0020200 297.2993  61.9562 15.35906047  1736
ONEWEB-0294             
1 49083U 21075J   21236.91667824 -.00034408  00000-0 -91058-3 0  9993
2 49083  87.4036   5.3023 0019537 296.5457  88.5610 15.38388963  1744
ONEWEB-0295             
1 49084U 21075K   21236.91667824 -.00035500  00000-0 -10540-2 0  9994
2 49084  87.4034   5.3082 0017686 304.3578  44.0646 15.34850605  1720
ONEWEB-0296             
1 49085U 21075L   21236.91667824 -.00034826  00000-0 -93483-3 0  9993
2 49085  87.4015   5.3022 0019391 303.0210  77.5304 15.37956109  1741
ONEWEB-0297             
1 49086U 21075M   21236.91667824 -.00035060  00000-0 -97610-3 0  9991
2 49086  87.4026   5.3059 0016300 298.5966  70.7949 15.36886008  1432
ONEWEB-0298             
1 49087U 21075N   21236.91667824 -.00035512  00000-0 -10069-2 0  9996
2 49087  87.3992   5.3063 0018699 294.2218  68.8249 15.36273830  1473
ONEWEB-0299             
1 49088U 21075P   21236.91667824 -.00036262  00000-0 -10818-2 0  9992
2 49088  87.3990   5.3068 0017241 303.0354  43.9672 15.34710459  1586
ONEWEB-0300             
1 49089U 21075Q   21236.91667824 -.00033044  00000-0 -90324-3 0  9999
2 49089  87.4005   5.3022 0017127 306.0460  69.0053 15.37434885  1513
ONEWEB-0301             
1 49090U 21075R   21236.91667824 -.00034448  00000-0 -91479-3 0  9992
2 49090  87.4008   5.3001 0019679 297.8698  86.0867 15.38279984  1463
ONEWEB-0302             
1 49091U 21075S   21236.91667824 -.00034401  00000-0 -90625-3 0  9994
2 49091  87.3995   5.2986 0019431 294.7695  91.8306 15.38531485  1535
ONEWEB-0304             
1 49092U 21075T   21236.91667824 -.00036594  00000-0 -10807-2 0  9993
2 49092  87.4011   5.3065 0018563 306.8967  43.1101 15.35005046  1738
ONEWEB-0305             
1 49093U 21075U   21236.91667824 -.00035528  00000-0 -10108-2 0  9994
2 49093  87.4026   5.3047 0019180 294.6544  67.2013 15.36158218  1477
ONEWEB-0308             
1 49094U 21075V   21236.91667824 -.00034615  00000-0 -93320-3 0  9999
2 49094  87.4019   5.2995 0018971 304.0466  75.1857 15.37830067  1741
ONEWEB-0309             
1 49095U 21075W   21236.91667824 -.00035958  00000-0 -10486-2 0  9992
2 49095  87.4008   5.3072 0019929 304.4298  49.3346 15.35371789  1732
ONEWEB-0310             
1 49096U 21075X   21236.91667824 -.00035131  00000-0 -96407-3 0  9994
2 49096  87.4035   5.3031 0016745 305.1869  68.7801 15.37325987  1746
ONEWEB-0311             
1 49097U 21075Y   21236.91667824 -.00035577  00000-0 -99806-3 0  9995
2 49097  87.4019   5.3048 0016754 295.2696  71.5910 15.36642318  1746
ONEWEB-0312             
1 49098U 21075Z   21236.91667824 -.00035678  00000-0 -10307-2 0  9996
2 49098  87.4028   5.3082 0020338 300.3647  56.3127 15.35656881  1731
ONEWEB-0313             
1 49099U 21075AA  21236.91667824 -.00035401  00000-0 -99994-3 0  9991
2 49099  87.4014   5.3049 0018153 293.8435  70.5433 15.36403084  1748
ONEWEB-0314             
1 49100U 21075AB  21236.91667824 -.00035506  00000-0 -10504-2 0  9999
2 49100  87.4004   5.3070 0018028 305.3845  44.1314 15.34957762  1738
ONEWEB-0315             
1 49101U 21075AC  21236.91667824 -.00034961  00000-0 -96427-3 0  9993
2 49101  87.3991   5.3022 0016222 303.8676  68.5434 15.37177260  1743
ONEWEB-0316             
1 49102U 21075AD  21236.91667824 -.00034293  00000-0 -88582-3 0  9995
2 49102  87.4039   5.2994 0017183 287.7319 105.6884 15.39177810  1752
ONEWEB-0317             
1 49103U 21075AE  21236.91667824 -.00034462  00000-0 -95380-3 0  9998
2 49103  87.4022   5.3031 0015855 303.0034  68.3398 15.37075086  1731
ONEWEB-0318             
1 49104U 21075AF  21236.91667824 -.00034273  00000-0 -88180-3 0  9999
2 49104  87.4011   5.3013 0016620 287.4411 107.3624 15.39309387  1759
ONEWEB-0319             
1 49105U 21075AG  21236.91667824 -.00035517  00000-0 -10128-2 0  9998
2 49105  87.4003   5.3060 0019546 295.2435  65.3628 15.36078859  1443
ONEWEB-0323             
1 49106U 21075AH  21236.91667824 -.00034370  00000-0 -90219-3 0  9995
2 49106  87.4023   5.3009 0019318 293.3836  94.3930 15.38643684  1635
ONEWEB-0329             
1 49107U 21075AJ  21236.91667824 -.00035813  00000-0 -10531-2 0  9997
2 49107  87.4004   5.3089 0019008 305.9926  45.2859 15.35129104  1446
ONEWEB-0330             
1 49108U 21075AK  21236.91667824 -.00035430  00000-0 -10374-2 0  9998
2 49108  87.4016   5.3048 0019475 305.2412  47.2724 15.35252243  1631
